NORAD_CAT_ID,OBJECT_NAME,OBJECT_TYPE,EPOCH,MEAN_MOTION,ECCENTRICITY,INCLINATION,RA_OF_ASC_NODE,ARG_OF_PERICENTER,MEAN_ANOMALY,BSTAR,MEAN_MOTION_DOT,MEAN_MOTION_DDOT,TLE_LINE0,TLE_LINE1,TLE_LINE2,SEMIMAJOR_AXIS,PERIOD,APOGEE,PERIGEE,DECAYED
53936.0,STARLINK-4791,PAYLOAD,2023-04-25 14:38:18,15.08804867,0.0001488,53.218,328.36,109.8645,250.2508,-0.00055042,-9.029e-05,0.0,0 STARLINK-4791,1 53936U 22119BC  23115.60993480 -.00009029  00000-0 -55042-3 0  9993,2 53936  53.2180 328.3600 0001488 109.8645 250.2508 15.08804867 33671,6917.988,95.44,540.882,538.823,0.0
53936.0,STARLINK-4791,PAYLOAD,2023-04-26 14:29:07,15.08809714,7.63e-05,53.2183,323.902,99.6663,260.4416,-0.00025334,-4.314e-05,0.0,0 STARLINK-4791,1 53936U 22119BC  23116.60355392 -.00004314  00000-0 -25334-3 0  9991,2 53936  53.2183 323.9020 0000763  99.6663 260.4416 15.08809714 33826,6917.973,95.439,540.366,539.31,0.0
53936.0,STARLINK-4791,PAYLOAD,2023-04-26 20:50:39,15.08821594,9.27e-05,53.2171,322.712,100.4294,259.6802,-0.00016871,-2.97e-05,0.0,0 STARLINK-4791,1 53936U 22119BC  23116.86851822 -.00002970  00000-0 -16871-3 0  9990,2 53936  53.2171 322.7120 0000927 100.4294 259.6802 15.08821594 33867,6917.937,95.439,540.443,539.16,0.0
53936.0,STARLINK-4791,PAYLOAD,2023-04-27 12:44:31,15.08810355,0.000142,53.2165,319.7363,118.9931,241.1203,0.00047522,7.277e-05,0.0,0 STARLINK-4791,1 53936U 22119BC  23117.53092088  .00007277  00000-0  47522-3 0  9996,2 53936  53.2165 319.7363 0001420 118.9931 241.1203 15.08810355 33961,6917.971,95.439,540.818,538.854,0.0
53936.0,STARLINK-4791,PAYLOAD,2023-04-27 20:41:26,15.08825972,9.19e-05,53.2203,318.2511,126.6025,233.5051,0.00057109,8.809e-05,0.0,0 STARLINK-4791,1 53936U 22119BC  23117.86211721  .00008809  00000-0  57109-3 0  9993,2 53936  53.2203 318.2511 0000919 126.6025 233.5051 15.08825972 33580,6917.923,95.438,540.424,539.153,0.0
53936.0,STARLINK-4791,PAYLOAD,2023-04-28 12:35:15,15.08871704,6.04e-05,53.2196,315.2767,194.1218,165.9757,0.00055522,8.567e-05,0.0,0 STARLINK-4791,1 53936U 22119BC  23118.52448443  .00008567  00000-0  55522-3 0  9998,2 53936  53.2196 315.2767 0000604 194.1218 165.9757 15.08871704 33682,6917.783,95.436,540.066,539.231,0.0
53936.0,STARLINK-4791,PAYLOAD,2023-04-28 23:42:55,15.08907835,6.08e-05,53.217,313.1952,159.7378,200.3638,0.00085417,0.00013358,0.0,0 STARLINK-4791,1 53936U 22119BC  23118.98814304  .00013358  00000-0  85417-3 0  9991,2 53936  53.2170 313.1952 0000608 159.7378 200.3638 15.08907835 33750,6917.673,95.433,539.959,539.117,0.0
53936.0,STARLINK-4791,PAYLOAD,2023-04-29 06:04:30,15.08853724,7.11e-05,53.2149,312.0043,113.3777,246.729,-0.00012567,-2.288e-05,0.0,0 STARLINK-4791,1 53936U 22119BC  23119.25312548 -.00002288  00000-0 -12567-3 0  9993,2 53936  53.2149 312.0043 0000711 113.3777 246.7290 15.08853724 33798,6917.838,95.437,540.195,539.212,0.0
53936.0,STARLINK-4791,PAYLOAD,2023-04-29 12:26:02,15.08855743,9.64e-05,53.2141,310.8179,56.3852,303.7232,-0.00041155,-6.834e-05,0.0,0 STARLINK-4791,1 53936U 22119BC  23119.51807889 -.00006834  00000-0 -41155-3 0  9995,2 53936  53.2141 310.8179 0000964  56.3852 303.7232 15.08855743 34262,6917.832,95.437,540.364,539.03,0.0
53936.0,STARLINK-4791,PAYLOAD,2023-04-29 20:22:57,15.08842982,8.19e-05,53.216,309.3284,103.3663,256.7421,-0.00059628,-9.766e-05,0.0,0 STARLINK-4791,1 53936U 22119BC  23119.84928012 -.00009766  00000-0 -59628-3 0  9994,2 53936  53.2160 309.3284 0000819 103.3663 256.7421 15.08842982 33880,6917.871,95.437,540.303,539.17,0.0
53936.0,STARLINK-4791,PAYLOAD,2023-04-30 23:24:31,15.08842086,8.61e-05,53.2163,304.2739,90.91,269.199,0.00038157,5.79e-05,0.0,0 STARLINK-4791,1 53936U 22119BC  23120.97536427  .00005790  00000-0  38157-3 0  9990,2 53936  53.2163 304.2739 0000861  90.9100 269.1990 15.08842086 34050,6917.874,95.437,540.335,539.143,0.0
53936.0,STARLINK-4791,PAYLOAD,2023-05-01 18:29:09,15.08840656,9.76e-05,53.2164,300.7049,101.155,258.9552,0.00038302,5.813e-05,0.0,0 STARLINK-4791,1 53936U 22119BC  23121.77024972  .00005813  00000-0  38302-3 0  9994,2 53936  53.2164 300.7049 0000976 101.1550 258.9552 15.08840656 34171,6917.878,95.438,540.419,539.068,0.0
53936.0,STARLINK-4791,PAYLOAD,2023-05-02 11:58:24,15.0884444,9.05e-05,53.2163,297.4357,81.8267,278.2828,0.00031378,4.71e-05,0.0,0 STARLINK-4791,1 53936U 22119BC  23122.49888937  .00004710  00000-0  31378-3 0  9994,2 53936  53.2163 297.4357 0000905  81.8267 278.2828 15.08844440 34711,6917.867,95.437,540.358,539.106,0.0
53936.0,STARLINK-4791,PAYLOAD,2023-05-02 18:19:56,15.08849822,0.0001022,53.2172,296.2468,89.4769,270.634,0.00030127,4.511e-05,0.0,0 STARLINK-4791,1 53936U 22119BC  23122.76384644  .00004511  00000-0  30127-3 0  9990,2 53936  53.2172 296.2468 0001022  89.4769 270.6340 15.08849822 34751,6917.85,95.437,540.422,539.008,0.0
53936.0,STARLINK-4791,PAYLOAD,2023-05-02 21:30:42,15.08852416,9.86e-05,53.2165,295.65,86.3641,273.7464,0.00033149,4.994e-05,0.0,0 STARLINK-4791,1 53936U 22119BC  23122.89632466  .00004994  00000-0  33149-3 0  9994,2 53936  53.2165 295.6500 0000986  86.3641 273.7464 15.08852416 34345,6917.842,95.437,540.39,539.025,0.0
53936.0,STARLINK-4791,PAYLOAD,2023-05-03 11:49:11,15.0883789,8.29e-05,53.2159,292.9734,94.1675,265.9412,4.2896e-05,3.95e-06,0.0,0 STARLINK-4791,1 53936U 22119BC  23123.49248998  .00000395  00000-0  42896-4 0  9995,2 53936  53.2159 292.9734 0000829  94.1675 265.9412 15.08837890 34869,6917.887,95.438,540.325,539.178,0.0
53936.0,STARLINK-4791,PAYLOAD,2023-05-03 18:10:43,15.08844067,9.26e-05,53.2161,291.7844,93.0397,267.0701,0.00014492,2.02e-05,0.0,0 STARLINK-4791,1 53936U 22119BC  23123.75744811  .00002020  00000-0  14492-3 0  9996,2 53936  53.2161 291.7844 0000926  93.0397 267.0701 15.08844067 34473,6917.868,95.437,540.374,539.092,0.0
53936.0,STARLINK-4791,PAYLOAD,2023-05-03 21:21:29,15.08846944,8.9e-05,53.2161,291.1891,94.3501,265.7592,0.00021792,3.183e-05,0.0,0 STARLINK-4791,1 53936U 22119BC  23123.88992660  .00003183  00000-0  21792-3 0  9999,2 53936  53.2161 291.1891 0000890  94.3501 265.7592 15.08846944 34929,6917.859,95.437,540.34,539.108,0.0
53936.0,STARLINK-4791,PAYLOAD,2023-05-04 11:39:58,15.0883543,9.47e-05,53.2165,288.5125,80.3112,279.7988,5.1669e-07,-2.79e-06,0.0,0 STARLINK-4791,1 53936U 22119BC  23124.48609099 -.00000279  00000-0  51669-6 0  9990,2 53936  53.2165 288.5125 0000947  80.3112 279.7988 15.08835430 35012,6917.894,95.438,540.414,539.104,0.0
53936.0,STARLINK-4791,PAYLOAD,2023-05-04 16:26:07,15.08837747,9.98e-05,53.2166,287.6204,86.0404,274.0702,0.00010802,1.432e-05,0.0,0 STARLINK-4791,1 53936U 22119BC  23124.68481116  .00001432  00000-0  10802-3 0  9992,2 53936  53.2166 287.6204 0000998  86.0404 274.0702 15.08837747 34614,6917.887,95.438,540.443,539.062,0.0
53936.0,STARLINK-4791,PAYLOAD,2023-05-05 17:52:18,15.08845891,0.0001015,53.2169,282.8636,76.0723,284.0382,0.00043286,6.609e-05,0.0,0 STARLINK-4791,1 53936U 22119BC  23125.74465364  .00006609  00000-0  43286-3 0  9990,2 53936  53.2169 282.8636 0001015  76.0723 284.0382 15.08845891 34778,6917.862,95.437,540.43,539.025,0.0
53936.0,STARLINK-4791,PAYLOAD,2023-05-05 19:27:41,15.08849533,0.0001036,53.2167,282.5655,78.5875,281.5234,0.00052995,8.159e-05,0.0,0 STARLINK-4791,1 53936U 22119BC  23125.81089266  .00008159  00000-0  52995-3 0  9990,2 53936  53.2167 282.5655 0001036  78.5875 281.5234 15.08849533 35217,6917.851,95.437,540.433,539.0,0.0
53936.0,STARLINK-4791,PAYLOAD,2023-05-06 09:46:09,15.08845517,0.000117,53.2157,279.8896,82.8964,277.2162,0.00033326,5.021e-05,0.0,0 STARLINK-4791,1 53936U 22119BC  23126.40705421  .00005021  00000-0  33326-3 0  9996,2 53936  53.2157 279.8896 0001170  82.8964 277.2162 15.08845517 35308,6917.864,95.437,540.538,538.919,0.0
53936.0,STARLINK-4791,PAYLOAD,2023-05-06 19:18:27,15.08852895,8.07e-05,53.216,278.1036,96.9207,263.1877,0.00040431,6.155e-05,0.0,0 STARLINK-4791,1 53936U 22119BC  23126.80448983  .00006155  00000-0  40431-3 0  9991,2 53936  53.2160 278.1036 0000807  96.9207 263.1877 15.08852895 34934,6917.841,95.437,540.264,539.148,0.0
53936.0,STARLINK-4791,PAYLOAD,2023-05-07 11:12:19,15.08844783,0.0001009,53.2163,275.1317,96.1308,263.9799,0.00020146,2.92e-05,0.0,0 STARLINK-4791,1 53936U 22119BC  23127.46689344  .00002920  00000-0  20146-3 0  9999,2 53936  53.2163 275.1317 0001009  96.1308 263.9799 15.08844783 35035,6917.866,95.437,540.429,539.033,0.0
53936.0,STARLINK-4791,PAYLOAD,2023-05-07 17:33:52,15.08847103,8.3e-05,53.2162,273.9406,87.1174,272.9913,0.00040025,6.089e-05,0.0,0 STARLINK-4791,1 53936U 22119BC  23127.73185302  .00006089  00000-0  40025-3 0  9992,2 53936  53.2162 273.9406 0000830  87.1174 272.9913 15.08847103 35500,6917.859,95.437,540.298,539.149,0.0
53936.0,STARLINK-4791,PAYLOAD,2023-05-08 19:00:02,15.08855698,8.89e-05,53.2162,269.1827,83.6479,276.4615,0.00073427,0.00011422,0.0,0 STARLINK-4791,1 53936U 22119BC  23128.79169041  .00011422  00000-0  73427-3 0  9990,2 53936  53.2162 269.1827 0000889  83.6479 276.4615 15.08855698 35233,6917.832,95.437,540.312,539.082,0.0
53936.0,STARLINK-4791,PAYLOAD,2023-05-09 12:29:16,15.08842292,0.0001024,53.2176,265.9127,100.1981,259.9127,0.00016248,2.299e-05,0.0,0 STARLINK-4791,1 53936U 22119BC  23129.52033388  .00002299  00000-0  16248-3 0  9996,2 53936  53.2176 265.9127 0001024 100.1981 259.9127 15.08842292 35342,6917.873,95.437,540.447,539.03,0.0
53936.0,STARLINK-4791,PAYLOAD,2023-05-09 14:04:39,15.0884328,0.000103,53.2174,265.6153,94.1096,266.0014,0.00016354,2.316e-05,0.0,0 STARLINK-4791,1 53936U 22119BC  23129.58657400  .00002316  00000-0  16354-3 0  9997,2 53936  53.2174 265.6153 0001030  94.1096 266.0014 15.08843280 35782,6917.87,95.437,540.448,539.023,0.0
53936.0,STARLINK-4791,PAYLOAD,2023-05-10 12:20:03,15.08840362,0.0002139,53.2161,261.4445,139.1376,220.9777,7.6553e-05,9.3e-06,0.0,0 STARLINK-4791,1 53936U 22119BC  23130.51393448  .00000930  00000-0  76553-4 0  9999,2 53936  53.2161 261.4445 0002139 139.1376 220.9777 15.08840362 35927,6917.879,95.438,541.224,538.265,0.0
